{"fetched_at":"2026-03-29T16:36:15Z","count":15609,"tles":[{"name":"STARLINK-35488","line1":"1 66254U 25245W   26087.61951034  .00023960  00000+0  81801-3 0  9993","line2":"2 66254  53.1604 196.0413 0001251  87.3801 272.7343 15.30218998 24150","category":"Starlink"}]}